start=new Date('2022-06-29T00:00:00.000Z').valueOf();
sats=[{"ECCENTRICITY":"0.00016550","EPOCH":"2022-06-28T21:07:02.089920","REF_FRAME":"TEME","PERIAPSIS":"546.091","MEAN_MOTION":"15.06392328","MEAN_ELEMENT_THEORY":"SGP4","EPHEMERIS_TYPE":"0","ELEMENT_SET_NO":"999","TIME_SYSTEM":"UTC","MEAN_MOTION_DOT":"-0.00001399","RA_OF_ASC_NODE":"56.1534","SITE":"AFETR","ARG_OF_PERICENTER":"67.3999","CENTER_NAME":"EARTH","CLASSIFICATION_TYPE":"U","MEAN_MOTION_DDOT":"0.0000000000000","FILE":"3504942","OBJECT_ID":"2020-055AP","REV_AT_EPOCH":"10558","APOAPSIS":"548.383","PERIOD":"95.593","COUNTRY_CODE":"US","DECAY_DATE":null,"NORAD_CAT_ID":"46064","BSTAR":"-0.00007504500000","MEAN_ANOMALY":"292.7165","RCS_SIZE":"LARGE","OBJECT_NAME":"STARLINK-1583","GP_ID":"207057635","SEMIMAJOR_AXIS":"6925.372","TLE_LINE2":"2 46064  53.0551  56.1534 0001655  67.3999 292.7165 15.06392328105585","LAUNCH_DATE":"2020-08-07","OBJECT_TYPE":"PAYLOAD","TLE_LINE1":"1 46064U 20055AP  22179.87988530 -.00001399  00000-0 -75045-4 0  9990","INCLINATION":"53.0551"},{"COUNTRY_CODE":"US","DECAY_DATE":null,"NORAD_CAT_ID":"46065","BSTAR":"-0.00004380800000","PERIOD":"95.593","REV_AT_EPOCH":"10535","APOAPSIS":"548.307","INCLINATION":"53.0569","GP_ID":"207056892","TLE_LINE2":"2 46065  53.0569  36.1782 0001523  78.5953 281.5207 15.06387267105350","SEMIMAJOR_AXIS":"6925.388","LAUNCH_DATE":"2020-08-07","OBJECT_TYPE":"PAYLOAD","TLE_LINE1":"1 46065U 20055AQ  22179.87341682 -.00000934  00000-0 -43808-4 0  9998","MEAN_ANOMALY":"281.5207","RCS_SIZE":"LARGE","OBJECT_NAME":"STARLINK-1515","MEAN_ELEMENT_THEORY":"SGP4","MEAN_MOTION":"15.06387267","EPHEMERIS_TYPE":"0","REF_FRAME":"TEME","PERIAPSIS":"546.198","ECCENTRICITY":"0.00015230","EPOCH":"2022-06-28T20:57:43.213248","CLASSIFICATION_TYPE":"U","CENTER_NAME":"EARTH","MEAN_MOTION_DDOT":"0.0000000000000","FILE":"3504942","OBJECT_ID":"2020-055AQ","ARG_OF_PERICENTER":"78.5953","MEAN_MOTION_DOT":"-0.00000934","RA_OF_ASC_NODE":"36.1782","SITE":"AFETR","ELEMENT_SET_NO":"999","TIME_SYSTEM":"UTC"},{"EPOCH":"2022-06-28T21:04:23.685024","ECCENTRICITY":"0.00015980","REF_FRAME":"TEME","PERIAPSIS":"546.156","EPHEMERIS_TYPE":"0","MEAN_ELEMENT_THEORY":"SGP4","MEAN_MOTION":"15.06383812","TIME_SYSTEM":"UTC","ELEMENT_SET_NO":"999","RA_OF_ASC_NODE":"36.1689","SITE":"AFETR","MEAN_MOTION_DOT":"0.00000817","ARG_OF_PERICENTER":"70.4859","OBJECT_ID":"2020-055AR","FILE":"3504942","MEAN_MOTION_DDOT":"0.0000000000000","CLASSIFICATION_TYPE":"U","CENTER_NAME":"EARTH","APOAPSIS":"548.370","REV_AT_EPOCH":"10585","PERIOD":"95.593","BSTAR":"0.00007375200000","NORAD_CAT_ID":"46066","DECAY_DATE":null,"COUNTRY_CODE":"US","OBJECT_NAME":"STARLINK-1525","RCS_SIZE":"LARGE","MEAN_ANOMALY":"289.6302","TLE_LINE1":"1 46066U 20055AR  22179.87805191  .00000817  00000-0  73752-4 0  9998","OBJECT_TYPE":"PAYLOAD","LAUNCH_DATE":"2020-08-07","SEMIMAJOR_AXIS":"6925.398","TLE_LINE2":"2 46066  53.0573  36.1689 0001598  70.4859 289.6302 15.06383812105852","GP_ID":"207056639","INCLINATION":"53.0573"},{"TIME_SYSTEM":"UTC","ELEMENT_SET_NO":"999","SITE":"AFETR","RA_OF_ASC_NODE":"36.1385","MEAN_MOTION_DOT":"-0.00000852","ARG_OF_PERICENTER":"71.7521","OBJECT_ID":"2020-055AS","FILE":"3504942","MEAN_MOTION_DDOT":"0.0000000000000","CENTER_NAME":"EARTH","CLASSIFICATION_TYPE":"U","EPOCH":"2022-06-28T21:08:19.965696","ECCENTRICITY":"0.00015790","REF_FRAME":"TEME","PERIAPSIS":"546.150","EPHEMERIS_TYPE":"0","MEAN_MOTION":"15.06390283","MEAN_ELEMENT_THEORY":"SGP4","OBJECT_NAME":"STARLINK-1529","RCS_SIZE":"LARGE","MEAN_ANOMALY":"288.3640","OBJECT_TYPE":"PAYLOAD","TLE_LINE1":"1 46067U 20055AS  22179.88078664 -.00000852  00000-0 -38337-4 0  9998","LAUNCH_DATE":"2020-08-07","SEMIMAJOR_AXIS":"6925.378","TLE_LINE2":"2 46067  53.0560  36.1385 0001579  71.7521 288.3640 15.06390283105863","GP_ID":"207057392","INCLINATION":"53.0560","APOAPSIS":"548.337","REV_AT_EPOCH":"10586","PERIOD":"95.593","BSTAR":"-0.00003833700000","NORAD_CAT_ID":"46067","DECAY_DATE":null,"COUNTRY_CODE":"US"},{"PERIOD":"95.592","NORAD_CAT_ID":"46068","BSTAR":"-0.00003232000000","COUNTRY_CODE":"US","DECAY_DATE":null,"REV_AT_EPOCH":"10585","APOAPSIS":"548.464","INCLINATION":"53.0566","RCS_SIZE":"LARGE","OBJECT_NAME":"STARLINK-1532","MEAN_ANOMALY":"298.5384","LAUNCH_DATE":"2020-08-07","OBJECT_TYPE":"PAYLOAD","TLE_LINE1":"1 46068U 20055AT  22179.82549564 -.00000763  00000-0 -32320-4 0  9992","GP_ID":"207058136","SEMIMAJOR_AXIS":"6925.363","TLE_LINE2":"2 46068  53.0566  36.3855 0001784  61.5784 298.5384 15.06395174105851","PERIAPSIS":"545.993","REF_FRAME":"TEME","EPHEMERIS_TYPE":"0","MEAN_ELEMENT_THEORY":"SGP4","MEAN_MOTION":"15.06395174","EPOCH":"2022-06-28T19:48:42.823296","ECCENTRICITY":"0.00017840","ARG_OF_PERICENTER":"61.5784","FILE":"3504942","OBJECT_ID":"2020-055AT","CENTER_NAME":"EARTH","CLASSIFICATION_TYPE":"U","MEAN_MOTION_DDOT":"0.0000000000000","TIME_SYSTEM":"UTC","ELEMENT_SET_NO":"999","MEAN_MOTION_DOT":"-0.00000763","RA_OF_ASC_NODE":"36.3855","SITE":"AFETR"},{"PERIOD":"95.593","COUNTRY_CODE":"US","DECAY_DATE":null,"NORAD_CAT_ID":"46069","BSTAR":"-0.00005491700000","REV_AT_EPOCH":"10531","APOAPSIS":"548.357","INCLINATION":"53.0577","MEAN_ANOMALY":"281.6078","RCS_SIZE":"LARGE","OBJECT_NAME":"STARLINK-1533","GP_ID":"207036379","SEMIMAJOR_AXIS":"6925.391","TLE_LINE2":"2 46069  53.0577  36.3260 0001590  78.5090 281.6078 15.06386166105312","LAUNCH_DATE":"2020-08-07","TLE_LINE1":"1 46069U 20055AU  22179.84119179 -.00001099  00000-0 -54917-4 0  9999","OBJECT_TYPE":"PAYLOAD","REF_FRAME":"TEME","PERIAPSIS":"546.155","MEAN_MOTION":"15.06386166","MEAN_ELEMENT_THEORY":"SGP4","EPHEMERIS_TYPE":"0","ECCENTRICITY":"0.00015900","EPOCH":"2022-06-28T20:11:18.970656","ARG_OF_PERICENTER":"78.5090","CLASSIFICATION_TYPE":"U","CENTER_NAME":"EARTH","MEAN_MOTION_DDOT":"0.0000000000000","FILE":"3504859","OBJECT_ID":"2020-055AU","ELEMENT_SET_NO":"999","TIME_SYSTEM":"UTC","MEAN_MOTION_DOT":"-0.00001099","RA_OF_ASC_NODE":"36.3260","SITE":"AFETR"},{"MEAN_MOTION_DOT":"0.00000358","SITE":"AFETR","RA_OF_ASC_NODE":"36.2652","ELEMENT_SET_NO":"999","TIME_SYSTEM":"UTC","CENTER_NAME":"EARTH","CLASSIFICATION_TYPE":"U","MEAN_MOTION_DDOT":"0.0000000000000","FILE":"3504942","OBJECT_ID":"2020-055AV","ARG_OF_PERICENTER":"87.2675","ECCENTRICITY":"0.00014400","EPOCH":"2022-06-28T20:32:31.991712","MEAN_MOTION":"15.06398824","MEAN_ELEMENT_THEORY":"SGP4","EPHEMERIS_TYPE":"0","REF_FRAME":"TEME","PERIAPSIS":"546.220","GP_ID":"207057140","SEMIMAJOR_AXIS":"6925.352","TLE_LINE2":"2 46070  53.0583  36.2652 0001440  87.2675 272.8478 15.06398824105326","LAUNCH_DATE":"2020-08-07","TLE_LINE1":"1 46070U 20055AV  22179.85592583  .00000358  00000-0  42912-4 0  9993","OBJECT_TYPE":"PAYLOAD","MEAN_ANOMALY":"272.8478","RCS_SIZE":"LARGE","OBJECT_NAME":"STARLINK-1536","INCLINATION":"53.0583","REV_AT_EPOCH":"10532","APOAPSIS":"548.214","COUNTRY_CODE":"US","DECAY_DATE":null,"NORAD_CAT_ID":"46070","BSTAR":"0.00004291200000","PERIOD":"95.592"},{"MEAN_ELEMENT_THEORY":"SGP4","MEAN_MOTION":"15.06382820","EPHEMERIS_TYPE":"0","REF_FRAME":"TEME","PERIAPSIS":"546.202","ECCENTRICITY":"0.00015360","EPOCH":"2022-06-28T20:59:05.028864","CENTER_NAME":"EARTH","CLASSIFICATION_TYPE":"U","MEAN_MOTION_DDOT":"0.0000000000000","FILE":"3504942","OBJECT_ID":"2020-055AW","ARG_OF_PERICENTER":"69.6224","MEAN_MOTION_DOT":"0.00000575","SITE":"AFETR","RA_OF_ASC_NODE":"36.1646","ELEMENT_SET_NO":"999","TIME_SYSTEM":"UTC","COUNTRY_CODE":"US","DECAY_DATE":null,"NORAD_CAT_ID":"46071","BSTAR":"0.00005749400000","PERIOD":"95.593","REV_AT_EPOCH":"10586","APOAPSIS":"548.330","INCLINATION":"53.0571","GP_ID":"207057893","SEMIMAJOR_AXIS":"6925.401","TLE_LINE2":"2 46071  53.0571  36.1646 0001536  69.6224 290.4930 15.06382820105863","LAUNCH_DATE":"2020-08-07","TLE_LINE1":"1 46071U 20055AW  22179.87436376  .00000575  00000-0  57494-4 0  9995","OBJECT_TYPE":"PAYLOAD","MEAN_ANOMALY":"290.4930","RCS_SIZE":"LARGE","OBJECT_NAME":"STARLINK-1538"},{"EPOCH":"2022-06-28T19:59:19.372704","ECCENTRICITY":"0.00018130","EPHEMERIS_TYPE":"0","MEAN_ELEMENT_THEORY":"SGP4","MEAN_MOTION":"15.06398900","PERIAPSIS":"545.961","REF_FRAME":"TEME","RA_OF_ASC_NODE":"36.3722","SITE":"AFETR","MEAN_MOTION_DOT":"-0.00001128","TIME_SYSTEM":"UTC","ELEMENT_SET_NO":"999","OBJECT_ID":"2020-055AX","FILE":"3504942","MEAN_MOTION_DDOT":"0.0000000000000","CENTER_NAME":"EARTH","CLASSIFICATION_TYPE":"U","ARG_OF_PERICENTER":"65.9531","APOAPSIS":"548.472","REV_AT_EPOCH":"10584","BSTAR":"-0.00005682300000","NORAD_CAT_ID":"46072","DECAY_DATE":null,"COUNTRY_CODE":"US","PERIOD":"95.592","OBJECT_TYPE":"PAYLOAD","TLE_LINE1":"1 46072U 20055AX  22179.83286311 -.00001128  00000-0 -56823-4 0  9996","LAUNCH_DATE":"2020-08-07","TLE_LINE2":"2 46072  53.0561  36.3722 0001813  65.9531 294.1648 15.06398900105849","SEMIMAJOR_AXIS":"6925.352","GP_ID":"207057636","OBJECT_NAME":"STARLINK-1539","RCS_SIZE":"LARGE","MEAN_ANOMALY":"294.1648","INCLINATION":"53.0561"},{"PERIOD":"95.592","BSTAR":"0.00004371500000","NORAD_CAT_ID":"46073","DECAY_DATE":null,"COUNTRY_CODE":"US","APOAPSIS":"548.371","REV_AT_EPOCH":"10585","INCLINATION":"53.0567","OBJECT_NAME":"STARLINK-1542","RCS_SIZE":"LARGE","MEAN_ANOMALY":"302.8375","OBJECT_TYPE":"PAYLOAD","TLE_LINE1":"1 46073U 20055AY  22179.84855419  .00000370  00000-0  43715-4 0  9991","LAUNCH_DATE":"2020-08-07","TLE_LINE2":"2 46073  53.0567  36.3041 0001651  57.2774 302.8375 15.06395278105853","SEMIMAJOR_AXIS":"6925.363","GP_ID":"207056893","REF_FRAME":"TEME","PERIAPSIS":"546.085","EPHEMERIS_TYPE":"0","MEAN_MOTION":"15.06395278","MEAN_ELEMENT_THEORY":"SGP4","EPOCH":"2022-06-28T20:21:55.082016","ECCENTRICITY":"0.00016510","ARG_OF_PERICENTER":"57.2774","OBJECT_ID":"2020-055AY","FILE":"3504942","MEAN_MOTION_DDOT":"0.0000000000000","CENTER_NAME":"EARTH","CLASSIFICATION_TYPE":"U","TIME_SYSTEM":"UTC","ELEMENT_SET_NO":"999","RA_OF_ASC_NODE":"36.3041","SITE":"AFETR","MEAN_MOTION_DOT":"0.00000370"}];
